1 02431U 63014AC  21227.66431665 -.00000569  00000-0 -20425+0 0  9999
2 02431  87.4422 355.4025 0684326  27.3562 336.1670  8.68987944216274
1  2431U 63014AC  21227.66431665 -.00000569  00000-0 -20425+0 0  9999
2  2431  87.4422 355.4025 0684326  27.3562 336.1670  8.68987944772574
1 02431U 63014AC  21228.35497518 -.00000700  00000-0 -25087+0 0  9991
2 02431  87.4419 355.3379 0683940  26.6073 336.8257  8.68986787216330
1 02431U 63014AC  21228.58519434 -.00000541  00000-0 -19414+0 0  9998
2 02431  87.4418 355.3164 0683798  26.3534 337.0489  8.68987061216359
1 02431U 63014AC  21229.62118107 -.00000191  00000-0 -69611-1 0  9993
2 02431  87.4418 355.2197 0683275  25.2321 338.0346  8.68987430216449
1  2431U 63014AC  21229.62118107 -.00000191  00000-0 -69611-1 0  9993
2  2431  87.4418 355.2197 0683275  25.2321 338.0346  8.68987430772749
1 02431U 63014AC  21230.31183897 -.00000318  00000-0 -11491+0 0  9991
2 02431  87.4416 355.1550 0682927  24.4838 338.6919  8.68987020216500
1 02431U 63014AC  21230.65716937 -.00000578  00000-0 -20752+0 0  9993
2 02431  87.4416 355.1228 0682763  24.1100 339.0201  8.68985762216532
1  2431U 63014AC  21230.65716937 -.00000578  00000-0 -20752+0 0  9993
2  2431  87.4416 355.1228 0682763  24.1100 339.0201  8.68985762772832
1 02431U 63014AC  21231.57804862 -.00000613  00000-0 -22008+0 0  9996
2 02431  87.4414 355.0364 0682338  23.1118 339.8963  8.68984721216612
1 02431U 63014AC  21232.61403827 -.00000358  00000-0 -12918+0 0  9993
2 02431  87.4415 354.9396 0681854  21.9810 340.8880  8.68984336216705
1  2431U 63014AC  21232.61403827 -.00000358  00000-0 -12918+0 0  9993
2  2431  87.4415 354.9396 0681854  21.9810 340.8880  8.68984336773006
1 02431U 63014AC  21233.30469927 -.00000568  00000-0 -20416+0 0  9998
2 02431  87.4416 354.8750 0681539  21.2277 341.5484  8.68982983216769
1 02431U 63014AC  21233.65002870 -.00000321  00000-0 -11585+0 0  9990
2 02431  87.4416 354.8428 0681367  20.8472 341.8818  8.68983663216795
1  2431U 63014AC  21233.65002870 -.00000321  00000-0 -11585+0 0  9990
2  2431  87.4416 354.8428 0681367  20.8472 341.8818  8.68983663773096
1 02431U 63014AC  21235.60690040 -.00000272  00000-0 -98588-1 0  9994
2 02431  87.4417 354.6602 0680567  18.7186 343.7457  8.68982684216968
1  2431U 63014AC  21235.60690040 -.00000272  00000-0 -98588-1 0  9994
2  2431  87.4417 354.6602 0680567  18.7186 343.7457  8.68982684773269
1 02431U 63014AC  21236.29756147 -.00000320  00000-0 -11574+0 0  9993
2 02431  87.4413 354.5957 0680292  17.9553 344.4136  8.68982157217025
1 02431U 63014AC  21237.33355299 -.00000275  00000-0 -99575-1 0  9990
2 02431  87.4414 354.4993 0679904  16.8363 345.3923  8.68981836217117
1  2431U 63014AC  21237.33355299 -.00000275  00000-0 -99575-1 0  9990
2  2431  87.4414 354.4993 0679904  16.8363 345.3923  8.68981836773417
1 02431U 63014AC  21238.59976421 -.00000099  00000-0 -36657-1 0  9991
2 02431  87.4410 354.3812 0679470  15.4502 346.6039  8.68982179217225
1 02431U 63014AC  21239.29042581 -.00000335  00000-0 -12112+0 0  9991
2 02431  87.4408 354.3169 0679224  14.6944 347.2642  8.68981170217288
1  2431U 63014AC  21239.29042581 -.00000335  00000-0 -12112+0 0  9991
2  2431  87.4408 354.3169 0679224  14.6944 347.2642  8.68981170773588
1 02431U 63014AC  21240.55663555  .00000179  00000-0  62667-1 0  9998
2 02431  87.4393 354.1982 0678829  13.3090 348.4742  8.68983010217391
1  2431U 63014AC  21240.55663555  .00000179  00000-0  62667-1 0  9998
2  2431  87.4393 354.1982 0678829  13.3090 348.4742  8.68983010773691
1 02431U 63014AC  21243.54949614 -.00000239  00000-0 -86605-1 0  9990
2 02431  87.4376 353.9179 0677946  10.0354 351.3309  8.68981853217657
1  2431U 63014AC  21243.54949614 -.00000239  00000-0 -86605-1 0  9990
2  2431  87.4376 353.9179 0677946  10.0354 351.3309  8.68981853773957
1 02431U 63014AC  21244.24015719 -.00000259  00000-0 -93768-1 0  9998
2 02431  87.4373 353.8531 0677756   9.2726 351.9962  8.68981342217718
1 02431U 63014AC  21245.27614521  .00000154  00000-0  54115-1 0  9993
2 02431  87.4371 353.7560 0677480   8.1241 352.9976  8.68983374217804
1  2431U 63014AC  21245.27614521  .00000154  00000-0  54115-1 0  9993
2  2431  87.4371 353.7560 0677480   8.1241 352.9976  8.68983374774105
1 02431U 63014AC  21246.54235173  .00000179  00000-0  63144-1 0  9995
2 02431  87.4367 353.6372 0677229   6.7279 354.2148  8.68984619217916
1  2431U 63014AC  21246.54235173  .00000179  00000-0  63144-1 0  9995
2  2431  87.4367 353.6372 0677229   6.7279 354.2148  8.68984619774217
1 02431U 63014AC  21247.57833838  .00000486  00000-0  17293+0 0  9994
2 02431  87.4387 353.5417 0677070   5.5717 355.2226  8.68986033218006
1  2431U 63014AC  21247.57833838  .00000486  00000-0  17293+0 0  9994
2  2431  87.4387 353.5417 0677070   5.5717 355.2226  8.68986033774306
1 02431U 63014AC  21248.26899700 -.00000247  00000-0 -89380-1 0  9996
2 02431  87.4393 353.4775 0676968   4.7948 355.8997  8.68984258218065
1  2431U 63014AC  21248.26899700 -.00000247  00000-0 -89380-1 0  9996
2  2431  87.4393 353.4775 0676968   4.7948 355.8997  8.68984258774365
1 02431U 63014AC  21249.53520086  .00000137  00000-0  48092-1 0  9996
2 02431  87.4388 353.3589 0676807   3.4066 357.1093  8.68986232218178
1 02431U 63014AC  21250.57118574  .00000170  00000-0  59928-1 0  9994
2 02431  87.4400 353.2628 0676686   2.2647 358.1043  8.68986815218266
1  2431U 63014AC  21250.57118574  .00000170  00000-0  59928-1 0  9994
2  2431  87.4400 353.2628 0676686   2.2647 358.1043  8.68986815774566
1 02431U 63014AC  21251.26184143  .00000053  00000-0  17874-1 0  9990
2 02431  87.4412 353.1990 0676628   1.4916 358.7779  8.68987174218324
1 02431U 63014AC  21251.72227741  .00000289  00000-0  10253+0 0  9996
2 02431  87.4419 353.1562 0676602   0.9777 359.2256  8.68988440218364
1  2431U 63014AC  21251.72227741  .00000289  00000-0  10253+0 0  9996
2  2431  87.4419 353.1562 0676602   0.9777 359.2256  8.68988440774664
1 02431U 63014AC  21252.29782337  .00000264  00000-0  93584-1 0  9999
2 02431  87.4417 353.1025 0676556   0.3514 359.7713  8.68988791218415
1 02431U 63014AC  21253.21869473  .00000496  00000-0  17653+0 0  9997
2 02431  87.4412 353.0165 0676485 359.3437   0.6492  8.68990511218493
1  2431U 63014AC  21253.21869473  .00000496  00000-0  17653+0 0  9997
2  2431  87.4412 353.0165 0676485 359.3437   0.6492  8.68990511774793
1 02431U 63014AC  21254.25467281  .00000042  00000-0  13952-1 0  9990
2 02431  87.4405 352.9199 0676411 358.1855   1.6584  8.68990836218583
1  2431U 63014AC  21254.25467281  .00000042  00000-0  13952-1 0  9990
2  2431  87.4405 352.9199 0676411 358.1855   1.6584  8.68990836774883
1 02431U 63014AC  21254.71510797 -.00000168  00000-0 -61266-1 0  9994
2 02431  87.4402 352.8768 0676385 357.6756   2.1027  8.68990618218626
1 02431U 63014AC  21256.21151584  .00000219  00000-0  77394-1 0  9990
2 02431  87.4399 352.7369 0676349 356.0307   3.5363  8.68994142218750
1  2431U 63014AC  21256.21151584  .00000219  00000-0  77394-1 0  9990
2  2431  87.4399 352.7369 0676349 356.0307   3.5363  8.68994142775051
1 02431U 63014AC  21256.67194826  .00000413  00000-0  14705+0 0  9997
2 02431  87.4364 352.6924 0676353 355.5141   3.9865  8.68995345218794
1 02431U 63014AC  21257.24748888  .00000323  00000-0  11465+0 0  9994
2 02431  87.4364 352.6385 0676362 354.8822   4.5373  8.68996068218843
1  2431U 63014AC  21257.24748888  .00000323  00000-0  11465+0 0  9994
2  2431  87.4364 352.6385 0676362 354.8822   4.5373  8.68996068775144
1 02431U 63014AC  21258.28345918  .00000727  00000-0  25945+0 0  9992
2 02431  87.4369 352.5416 0676392 353.7444   5.5293  8.68999011218936
1  2431U 63014AC  21258.28345918  .00000727  00000-0  25945+0 0  9992
2  2431  87.4369 352.5416 0676392 353.7444   5.5293  8.68999011775237
1 02431U 63014AC  21259.54964381  .00000681  00000-0  24312+0 0  9999
2 02431  87.4398 352.4245 0676476 352.3518   6.7436  8.69000873219042
1  2431U 63014AC  21259.54964381  .00000681  00000-0  24312+0 0  9999
2  2431  87.4398 352.4245 0676476 352.3518   6.7436  8.69000873775342
1 02431U 63014AC  21260.24028917  .00000568  00000-0  20247+0 0  9991
2 02431  87.4405 352.3600 0676541 351.5887   7.4093  8.69001460219105
1  2431U 63014AC  21261.50646780  .00001003  00000-0  35817+0 0  9999
2  2431  87.4379 352.2397 0676712 350.2030   8.6183  8.69005280775512
1 02431U 63014AC  21262.54243061  .00000675  00000-0  24076+0 0  9998
2 02431  87.4396 352.1441 0676890 349.0449   9.6290  8.69006365219302
1  2431U 63014AC  21262.54243061  .00000675  00000-0  24076+0 0  9998
2  2431  87.4396 352.1441 0676890 349.0449   9.6290  8.69006365775602
1 02431U 63014AC  21263.23307093  .00000344  00000-0  12222+0 0  9994
2 02431  87.4400 352.0797 0677002 348.2833  10.2939  8.69007060219362
1 02431U 63014AC  21264.49924287  .00000389  00000-0  13846+0 0  9995
2 02431  87.4389 351.9607 0677199 346.8999  11.5023  8.69009253219476
1  2431U 63014AC  21264.49924287  .00000389  00000-0  13846+0 0  9995
2  2431  87.4389 351.9607 0677199 346.8999  11.5023  8.69009253775776
1 02431U 63014AC  21265.53519700  .00000907  00000-0  32394+0 0  9996
2 02431  87.4392 351.8644 0677363 345.7670  12.4924  8.69013135219561
1  2431U 63014AC  21265.53519700  .00000907  00000-0  32394+0 0  9996
2  2431  87.4392 351.8644 0677363 345.7670  12.4924  8.69013135775861
1 02431U 63014AC  21266.45604573  .00000189  00000-0  66820-1 0  9996
2 02431  87.4400 351.7786 0677731 344.7117  13.4146  8.69012977219640
1  2431U 63014AC  21266.45604573  .00000189  00000-0  66820-1 0  9996
2  2431  87.4400 351.7786 0677731 344.7117  13.4146  8.69012977775940
1 02431U 63014AC  21268.52794272  .00001008  00000-0  35984+0 0  9998
2 02431  87.4391 351.5849 0678276 342.4199  15.4197  8.69020076219824
1  2431U 63014AC  21268.52794272  .00001008  00000-0  35984+0 0  9998
2  2431  87.4391 351.5849 0678276 342.4199  15.4197  8.69020076776125
1 02431U 63014AC  21269.44878223  .00000921  00000-0  32850+0 0  9991
2 02431  87.4382 351.4985 0678526 341.4061  16.3074  8.69022352219901
